<?xml version="1.0" encoding="UTF-8"?>
<ndm xmlns:xsi="http://www.w3.org/2001/XMLSchema-instance" xsi:noNamespaceSchemaLocation="https://sanaregistry.org/r/ndmxml_unqualified/ndmxml-2.0.0-master-2.0.xsd">
<omm id="CCSDS_OMM_VERS" version="2.0">
<header><CREATION_DATE/><ORIGINATOR/></header><body><segment><metadata><OBJECT_NAME>KUIPER-00035</OBJECT_NAME><OBJECT_ID>2025-088AA</OBJECT_ID><CENTER_NAME>EARTH</CENTER_NAME><REF_FRAME>TEME</REF_FRAME><TIME_SYSTEM>UTC</TIME_SYSTEM><MEAN_ELEMENT_THEORY>SGP4</MEAN_ELEMENT_THEORY></metadata><data><meanElements><EPOCH>2025-08-17T22:00:03.000096</EPOCH><MEAN_MOTION>14.79839702</MEAN_MOTION><ECCENTRICITY>.0006166</ECCENTRICITY><INCLINATION>51.9005</INCLINATION><RA_OF_ASC_NODE>295.1806</RA_OF_ASC_NODE><ARG_OF_PERICENTER>122.2629</ARG_OF_PERICENTER><MEAN_ANOMALY>313.2268</MEAN_ANOMALY></meanElements><tleParameters><EPHEMERIS_TYPE>0</EPHEMERIS_TYPE><CLASSIFICATION_TYPE>U</CLASSIFICATION_TYPE><NORAD_CAT_ID>63748</NORAD_CAT_ID><ELEMENT_SET_NO>999</ELEMENT_SET_NO><REV_AT_EPOCH>537</REV_AT_EPOCH><BSTAR>-.22146E-2</BSTAR><MEAN_MOTION_DOT>-.17031E-3</MEAN_MOTION_DOT><MEAN_MOTION_DDOT>0</MEAN_MOTION_DDOT></tleParameters></data></segment></body></omm>
<omm id="CCSDS_OMM_VERS" version="2.0">
<header><CREATION_DATE/><ORIGINATOR/></header><body><segment><metadata><OBJECT_NAME>KUIPER-00037</OBJECT_NAME><OBJECT_ID>2025-088AB</OBJECT_ID><CENTER_NAME>EARTH</CENTER_NAME><REF_FRAME>TEME</REF_FRAME><TIME_SYSTEM>UTC</TIME_SYSTEM><MEAN_ELEMENT_THEORY>SGP4</MEAN_ELEMENT_THEORY></metadata><data><meanElements><EPOCH>2025-08-18T14:00:01.999872</EPOCH><MEAN_MOTION>14.80403389</MEAN_MOTION><ECCENTRICITY>.0007144</ECCENTRICITY><INCLINATION>51.8999</INCLINATION><RA_OF_ASC_NODE>291.2047</RA_OF_ASC_NODE><ARG_OF_PERICENTER>67.8947</ARG_OF_PERICENTER><MEAN_ANOMALY>313.0617</MEAN_ANOMALY></meanElements><tleParameters><EPHEMERIS_TYPE>0</EPHEMERIS_TYPE><CLASSIFICATION_TYPE>U</CLASSIFICATION_TYPE><NORAD_CAT_ID>63749</NORAD_CAT_ID><ELEMENT_SET_NO>999</ELEMENT_SET_NO><REV_AT_EPOCH>1823</REV_AT_EPOCH><BSTAR>.48957E-2</BSTAR><MEAN_MOTION_DOT>.37745E-3</MEAN_MOTION_DOT><MEAN_MOTION_DDOT>0</MEAN_MOTION_DDOT></tleParameters></data></segment></body></omm>
<omm id="CCSDS_OMM_VERS" version="2.0">
<header><CREATION_DATE/><ORIGINATOR/></header><body><segment><metadata><OBJECT_NAME>KUIPER-00038</OBJECT_NAME><OBJECT_ID>2025-088AC</OBJECT_ID><CENTER_NAME>EARTH</CENTER_NAME><REF_FRAME>TEME</REF_FRAME><TIME_SYSTEM>UTC</TIME_SYSTEM><MEAN_ELEMENT_THEORY>SGP4</MEAN_ELEMENT_THEORY></metadata><data><meanElements><EPOCH>2025-08-18T14:00:01.999872</EPOCH><MEAN_MOTION>15.17361868</MEAN_MOTION><ECCENTRICITY>.0004171</ECCENTRICITY><INCLINATION>51.8818</INCLINATION><RA_OF_ASC_NODE>279.8584</RA_OF_ASC_NODE><ARG_OF_PERICENTER>120.9261</ARG_OF_PERICENTER><MEAN_ANOMALY>143.1522</MEAN_ANOMALY></meanElements><tleParameters><EPHEMERIS_TYPE>0</EPHEMERIS_TYPE><CLASSIFICATION_TYPE>U</CLASSIFICATION_TYPE><NORAD_CAT_ID>63750</NORAD_CAT_ID><ELEMENT_SET_NO>999</ELEMENT_SET_NO><REV_AT_EPOCH>1738</REV_AT_EPOCH><BSTAR>.23061E-2</BSTAR><MEAN_MOTION_DOT>.46631E-3</MEAN_MOTION_DOT><MEAN_MOTION_DDOT>0</MEAN_MOTION_DDOT></tleParameters></data></segment></body></omm>
<omm id="CCSDS_OMM_VERS" version="2.0">
<header><CREATION_DATE/><ORIGINATOR/></header><body><segment><metadata><OBJECT_NAME>KUIPER-00039</OBJECT_NAME><OBJECT_ID>2025-134A</OBJECT_ID><CENTER_NAME>EARTH</CENTER_NAME><REF_FRAME>TEME</REF_FRAME><TIME_SYSTEM>UTC</TIME_SYSTEM><MEAN_ELEMENT_THEORY>SGP4</MEAN_ELEMENT_THEORY></metadata><data><meanElements><EPOCH>2025-08-18T06:00:20.017152</EPOCH><MEAN_MOTION>15.35193484</MEAN_MOTION><ECCENTRICITY>.0008086</ECCENTRICITY><INCLINATION>51.8686</INCLINATION><RA_OF_ASC_NODE>62.1418</RA_OF_ASC_NODE><ARG_OF_PERICENTER>310.5699</ARG_OF_PERICENTER><MEAN_ANOMALY>49.4582</MEAN_ANOMALY></meanElements><tleParameters><EPHEMERIS_TYPE>0</EPHEMERIS_TYPE><CLASSIFICATION_TYPE>U</CLASSIFICATION_TYPE><NORAD_CAT_ID>64500</NORAD_CAT_ID><ELEMENT_SET_NO>999</ELEMENT_SET_NO><REV_AT_EPOCH>935</REV_AT_EPOCH><BSTAR>.54779E-3</BSTAR><MEAN_MOTION_DOT>.18681E-3</MEAN_MOTION_DOT><MEAN_MOTION_DDOT>0</MEAN_MOTION_DDOT></tleParameters></data></segment></body></omm>
<omm id="CCSDS_OMM_VERS" version="2.0">
<header><CREATION_DATE/><ORIGINATOR/></header><body><segment><metadata><OBJECT_NAME>KUIPER-00040</OBJECT_NAME><OBJECT_ID>2025-134B</OBJECT_ID><CENTER_NAME>EARTH</CENTER_NAME><REF_FRAME>TEME</REF_FRAME><TIME_SYSTEM>UTC</TIME_SYSTEM><MEAN_ELEMENT_THEORY>SGP4</MEAN_ELEMENT_THEORY></metadata><data><meanElements><EPOCH>2025-08-18T14:00:01.999872</EPOCH><MEAN_MOTION>15.05308800</MEAN_MOTION><ECCENTRICITY>.0015561</ECCENTRICITY><INCLINATION>51.8846</INCLINATION><RA_OF_ASC_NODE>64.3300</RA_OF_ASC_NODE><ARG_OF_PERICENTER>320.0668</ARG_OF_PERICENTER><MEAN_ANOMALY>335.4902</MEAN_ANOMALY></meanElements><tleParameters><EPHEMERIS_TYPE>0</EPHEMERIS_TYPE><CLASSIFICATION_TYPE>U</CLASSIFICATION_TYPE><NORAD_CAT_ID>64501</NORAD_CAT_ID><ELEMENT_SET_NO>999</ELEMENT_SET_NO><REV_AT_EPOCH>935</REV_AT_EPOCH><BSTAR>-.94706E-3</BSTAR><MEAN_MOTION_DOT>-.14004E-3</MEAN_MOTION_DOT><MEAN_MOTION_DDOT>0</MEAN_MOTION_DDOT></tleParameters></data></segment></body></omm>
<omm id="CCSDS_OMM_VERS" version="2.0">
<header><CREATION_DATE/><ORIGINATOR/></header><body><segment><metadata><OBJECT_NAME>KUIPER-00041</OBJECT_NAME><OBJECT_ID>2025-134C</OBJECT_ID><CENTER_NAME>EARTH</CENTER_NAME><REF_FRAME>TEME</REF_FRAME><TIME_SYSTEM>UTC</TIME_SYSTEM><MEAN_ELEMENT_THEORY>SGP4</MEAN_ELEMENT_THEORY></metadata><data><meanElements><EPOCH>2025-08-18T14:00:01.999872</EPOCH><MEAN_MOTION>14.99940301</MEAN_MOTION><ECCENTRICITY>.0012183</ECCENTRICITY><INCLINATION>51.8858</INCLINATION><RA_OF_ASC_NODE>65.0098</RA_OF_ASC_NODE><ARG_OF_PERICENTER>313.9675</ARG_OF_PERICENTER><MEAN_ANOMALY>321.8981</MEAN_ANOMALY></meanElements><tleParameters><EPHEMERIS_TYPE>0</EPHEMERIS_TYPE><CLASSIFICATION_TYPE>U</CLASSIFICATION_TYPE><NORAD_CAT_ID>64502</NORAD_CAT_ID><ELEMENT_SET_NO>999</ELEMENT_SET_NO><REV_AT_EPOCH>933</REV_AT_EPOCH><BSTAR>-.79331E-3</BSTAR><MEAN_MOTION_DOT>-.1023E-3</MEAN_MOTION_DOT><MEAN_MOTION_DDOT>0</MEAN_MOTION_DDOT></tleParameters></data></segment></body></omm>
<omm id="CCSDS_OMM_VERS" version="2.0">
<header><CREATION_DATE/><ORIGINATOR/></header><body><segment><metadata><OBJECT_NAME>KUIPER-00042</OBJECT_NAME><OBJECT_ID>2025-134D</OBJECT_ID><CENTER_NAME>EARTH</CENTER_NAME><REF_FRAME>TEME</REF_FRAME><TIME_SYSTEM>UTC</TIME_SYSTEM><MEAN_ELEMENT_THEORY>SGP4</MEAN_ELEMENT_THEORY></metadata><data><meanElements><EPOCH>2025-08-18T00:00:02.999808</EPOCH><MEAN_MOTION>15.14485710</MEAN_MOTION><ECCENTRICITY>.0011527</ECCENTRICITY><INCLINATION>51.8779</INCLINATION><RA_OF_ASC_NODE>65.7158</RA_OF_ASC_NODE><ARG_OF_PERICENTER>322.7044</ARG_OF_PERICENTER><MEAN_ANOMALY>8.5129</MEAN_ANOMALY></meanElements><tleParameters><EPHEMERIS_TYPE>0</EPHEMERIS_TYPE><CLASSIFICATION_TYPE>U</CLASSIFICATION_TYPE><NORAD_CAT_ID>64503</NORAD_CAT_ID><ELEMENT_SET_NO>999</ELEMENT_SET_NO><REV_AT_EPOCH>928</REV_AT_EPOCH><BSTAR>.27137E-2</BSTAR><MEAN_MOTION_DOT>.50694E-3</MEAN_MOTION_DOT><MEAN_MOTION_DDOT>0</MEAN_MOTION_DDOT></tleParameters></data></segment></body></omm>
<omm id="CCSDS_OMM_VERS" version="2.0">
<header><CREATION_DATE/><ORIGINATOR/></header><body><segment><metadata><OBJECT_NAME>KUIPER-00043</OBJECT_NAME><OBJECT_ID>2025-134E</OBJECT_ID><CENTER_NAME>EARTH</CENTER_NAME><REF_FRAME>TEME</REF_FRAME><TIME_SYSTEM>UTC</TIME_SYSTEM><MEAN_ELEMENT_THEORY>SGP4</MEAN_ELEMENT_THEORY></metadata><data><meanElements><EPOCH>2025-08-17T22:00:03.000096</EPOCH><MEAN_MOTION>15.29733500</MEAN_MOTION><ECCENTRICITY>.0008182</ECCENTRICITY><INCLINATION>51.8731</INCLINATION><RA_OF_ASC_NODE>64.0532</RA_OF_ASC_NODE><ARG_OF_PERICENTER>310.3901</ARG_OF_PERICENTER><MEAN_ANOMALY>231.6962</MEAN_ANOMALY></meanElements><tleParameters><EPHEMERIS_TYPE>0</EPHEMERIS_TYPE><CLASSIFICATION_TYPE>U</CLASSIFICATION_TYPE><NORAD_CAT_ID>64504</NORAD_CAT_ID><ELEMENT_SET_NO>999</ELEMENT_SET_NO><REV_AT_EPOCH>967</REV_AT_EPOCH><BSTAR>.13532E-2</BSTAR><MEAN_MOTION_DOT>.39425E-3</MEAN_MOTION_DOT><MEAN_MOTION_DDOT>0</MEAN_MOTION_DDOT></tleParameters></data></segment></body></omm>

</ndm>
