KUIPER-00035            
1 63748U 25088AA  25229.91670139 -.00017031  00000+0 -22146-2 0  9997
2 63748  51.9005 295.1806 0006166 122.2629 313.2268 14.79839702  5374
KUIPER-00037            
1 63749U 25088AB  25230.58335648  .00037745  00000+0  48957-2 0  9996
2 63749  51.8999 291.2047 0007144  67.8947 313.0617 14.80403389 18239
KUIPER-00038            
1 63750U 25088AC  25230.58335648  .00046631  00000+0  23061-2 0  9991
2 63750  51.8818 279.8584 0004171 120.9261 143.1522 15.17361868 17384
KUIPER-00039            
1 64500U 25134A   25230.25023168  .00018681  00000+0  54779-3 0  9997
2 64500  51.8686  62.1418 0008086 310.5699  49.4582 15.35193484  9350
KUIPER-00040            
1 64501U 25134B   25230.58335648 -.00014004  00000+0 -94706-3 0  9994
2 64501  51.8846  64.3300 0015561 320.0668 335.4902 15.05308800  9352
KUIPER-00041            
1 64502U 25134C   25230.58335648 -.00010230  00000+0 -79331-3 0  9999
2 64502  51.8858  65.0098 0012183 313.9675 321.8981 14.99940301  9338
KUIPER-00042            
1 64503U 25134D   25230.00003472  .00050694  00000+0  27137-2 0  9996
2 64503  51.8779  65.7158 0011527 322.7044   8.5129 15.14485710  9287
KUIPER-00043            
1 64504U 25134E   25229.91670139  .00039425  00000+0  13532-2 0  9998
2 64504  51.8731  64.0532 0008182 310.3901 231.6962 15.29733500  9678
